CZ-2C R/B               
1 54039U 22132E   25361.46918752  .00034383  00000+0  49477-3 0  9994
2 54039  97.2955 357.9589 0020585   6.4760 353.6757 15.55732104179128
GSLV R/B                
1 54149U 22138AN  25361.50304866  .00002622  00000+0  22884-3 0  9996
2 54149  87.3823 190.5293 0023793  57.4387 302.9137 14.96205821173131
XRISM                   
1 57800U 23137A   25361.43899569  .00006719  00000+0  39217-3 0  9993
2 57800  31.0032  30.6306 0007615  33.3099 326.8018 15.10493291126850
ACS3                    
1 59588U 24077B   25361.48268458  .00030829  00000+0  26079-1 0  9993
2 59588  97.2576 313.7943 0073423 301.7470  57.6551 13.86194267 84181
SZ-21 MODULE            
1 66515U 25246C   25361.49223441  .00029574  00000+0  31547-3 0  9997
2 66515  41.4763 286.0025 0004075 340.5581  19.5103 15.63283022  6754
