CCSDS_OMM_VERS = 2.0
CREATION_DATE  = 
ORIGINATOR     = 

OBJECT_NAME    = CZ-2C R/B
OBJECT_ID      = 2022-132E
CENTER_NAME    = EARTH
REF_FRAME      = TEME
TIME_SYSTEM    = UTC
MEAN_ELEMENT_THEORY = SGP/SGP4

EPOCH          = 2025-12-27T11:15:37.801728
MEAN_MOTION    = 15.55732104
ECCENTRICITY   = .0020585
INCLINATION    = 97.2955
RA_OF_ASC_NODE = 357.9589
ARG_OF_PERICENTER = 6.4760
MEAN_ANOMALY   = 353.6757

EPHEMERIS_TYPE = 0
CLASSIFICATION_TYPE = U
NORAD_CAT_ID   = 54039
ELEMENT_SET_NO = 999
REV_AT_EPOCH   = 17912
BSTAR          = .49477E-3
MEAN_MOTION_DOT = .34383E-3
MEAN_MOTION_DDOT = 0

CCSDS_OMM_VERS = 2.0
CREATION_DATE  = 
ORIGINATOR     = 

OBJECT_NAME    = GSLV R/B
OBJECT_ID      = 2022-138AN
CENTER_NAME    = EARTH
REF_FRAME      = TEME
TIME_SYSTEM    = UTC
MEAN_ELEMENT_THEORY = SGP/SGP4

EPOCH          = 2025-12-27T12:04:23.404224
MEAN_MOTION    = 14.96205821
ECCENTRICITY   = .0023793
INCLINATION    = 87.3823
RA_OF_ASC_NODE = 190.5293
ARG_OF_PERICENTER = 57.4387
MEAN_ANOMALY   = 302.9137

EPHEMERIS_TYPE = 0
CLASSIFICATION_TYPE = U
NORAD_CAT_ID   = 54149
ELEMENT_SET_NO = 999
REV_AT_EPOCH   = 17313
BSTAR          = .22884E-3
MEAN_MOTION_DOT = .2622E-4
MEAN_MOTION_DDOT = 0

CCSDS_OMM_VERS = 2.0
CREATION_DATE  = 
ORIGINATOR     = 

OBJECT_NAME    = XRISM
OBJECT_ID      = 2023-137A
CENTER_NAME    = EARTH
REF_FRAME      = TEME
TIME_SYSTEM    = UTC
MEAN_ELEMENT_THEORY = SGP/SGP4

EPOCH          = 2025-12-27T10:32:09.227616
MEAN_MOTION    = 15.10493291
ECCENTRICITY   = .0007615
INCLINATION    = 31.0032
RA_OF_ASC_NODE = 30.6306
ARG_OF_PERICENTER = 33.3099
MEAN_ANOMALY   = 326.8018

EPHEMERIS_TYPE = 0
CLASSIFICATION_TYPE = U
NORAD_CAT_ID   = 57800
ELEMENT_SET_NO = 999
REV_AT_EPOCH   = 12685
BSTAR          = .39217E-3
MEAN_MOTION_DOT = .6719E-4
MEAN_MOTION_DDOT = 0

CCSDS_OMM_VERS = 2.0
CREATION_DATE  = 
ORIGINATOR     = 

OBJECT_NAME    = ACS3
OBJECT_ID      = 2024-077B
CENTER_NAME    = EARTH
REF_FRAME      = TEME
TIME_SYSTEM    = UTC
MEAN_ELEMENT_THEORY = SGP/SGP4

EPOCH          = 2025-12-27T11:35:03.947712
MEAN_MOTION    = 13.86194267
ECCENTRICITY   = .0073423
INCLINATION    = 97.2576
RA_OF_ASC_NODE = 313.7943
ARG_OF_PERICENTER = 301.7470
MEAN_ANOMALY   = 57.6551

EPHEMERIS_TYPE = 0
CLASSIFICATION_TYPE = U
NORAD_CAT_ID   = 59588
ELEMENT_SET_NO = 999
REV_AT_EPOCH   = 8418
BSTAR          = .26079E-1
MEAN_MOTION_DOT = .30829E-3
MEAN_MOTION_DDOT = 0

CCSDS_OMM_VERS = 2.0
CREATION_DATE  = 
ORIGINATOR     = 

OBJECT_NAME    = SZ-21 MODULE
OBJECT_ID      = 2025-246C
CENTER_NAME    = EARTH
REF_FRAME      = TEME
TIME_SYSTEM    = UTC
MEAN_ELEMENT_THEORY = SGP/SGP4

EPOCH          = 2025-12-27T11:48:49.053024
MEAN_MOTION    = 15.63283022
ECCENTRICITY   = .0004075
INCLINATION    = 41.4763
RA_OF_ASC_NODE = 286.0025
ARG_OF_PERICENTER = 340.5581
MEAN_ANOMALY   = 19.5103

EPHEMERIS_TYPE = 0
CLASSIFICATION_TYPE = U
NORAD_CAT_ID   = 66515
ELEMENT_SET_NO = 999
REV_AT_EPOCH   = 675
BSTAR          = .31547E-3
MEAN_MOTION_DOT = .29574E-3
MEAN_MOTION_DDOT = 0

